[Satellite]
VERSION=1.1
NAME=FLOCK 2K-05
NICKNAME=FLOCK 2K-05
TLE1=1 42864U 17042AR  18020.42831208  .00008174  00000-0  23947-3 0  9995
TLE2=2 42864  96.9939 284.4871 0009250 292.7995  67.2272 15.35413272 28957
